[
    {
        "Altitude(m)": 612513.8961095767,
        "Argument of Periapsis(deg)": 0.0,
        "Eccentricity": 0.0,
        "Inclination(deg)": 60.0,
        "Latitude(deg)": -28.13584839546033,
        "Longitude(deg)": 82.91313040118264,
        "Mean Anomaly(deg)": -147.27270000000004,
        "RAAN(deg)": 345.0,
        "Satellite Name": "Test1 1531",
        "Satellite Number": 1531,
        "Semi-Major Axis(m)": 6980739.136638005,
        "Time(s)": 0
    },
    {
        "Altitude(m)": 612708.2636090675,
        "Argument of Periapsis(deg)": 0.00010418945913296404,
        "Eccentricity": 0.0,
        "Inclination(deg)": 60.0,
        "Latitude(deg)": -28.647587384661424,
        "Longitude(deg)": 83.27036072469659,
        "Mean Anomaly(deg)": -146.65259385453817,
        "RAAN(deg)": 344.99957995086027,
        "Satellite Name": "Test1 1531",
        "Satellite Number": 1531,
        "Semi-Major Axis(m)": 6980739.136638005,
        "Time(s)": 10
    }
]